[{"OBJECT_NAME":"SHIYAN-5 (SY-5)","OBJECT_ID":"2013-068A","EPOCH":"2026-03-09T23:05:17.847168","MEAN_MOTION":14.43628019,"ECCENTRICITY":0.00128666,"INCLINATION":98.0874,"RA_OF_ASC_NODE":305.1507,"ARG_OF_PERICENTER":245.0461,"MEAN_ANOMALY":114.9394,"EPHEMERIS_TYPE":0,"CLASSIFICATION_TYPE":"U","NORAD_CAT_ID":39455,"ELEMENT_SET_NO":999,"REV_AT_EPOCH":64731,"BSTAR":0.00021006914,"MEAN_MOTION_DOT":6.72e-6,"MEAN_MOTION_DDOT":0},{"OBJECT_NAME":"PEGASUS DEB","OBJECT_ID":"1994-029AFD","EPOCH":"2026-03-09T13:52:28.077600","MEAN_MOTION":14.64924575,"ECCENTRICITY":0.0184481,"INCLINATION":81.9461,"RA_OF_ASC_NODE":171.1004,"ARG_OF_PERICENTER":322.7223,"MEAN_ANOMALY":96.435,"EPHEMERIS_TYPE":0,"CLASSIFICATION_TYPE":"U","NORAD_CAT_ID":39318,"ELEMENT_SET_NO":999,"REV_AT_EPOCH":26349,"BSTAR":0.00019214,"MEAN_MOTION_DOT":1.341e-5,"MEAN_MOTION_DDOT":0}]
